<?xml version="1.0" encoding="UTF-8"?>
<ndm xmlns:xsi="http://www.w3.org/2001/XMLSchema-instance" xsi:noNamespaceSchemaLocation="https://sanaregistry.org/r/ndmxml_unqualified/ndmxml-2.0.0-master-2.0.xsd">
<omm id="CCSDS_OMM_VERS" version="2.0">
<header><CREATION_DATE/><ORIGINATOR/></header><body><segment><metadata><OBJECT_NAME>IRIDIUM 159</OBJECT_NAME><OBJECT_ID>2018-061K</OBJECT_ID><CENTER_NAME>EARTH</CENTER_NAME><REF_FRAME>TEME</REF_FRAME><TIME_SYSTEM>UTC</TIME_SYSTEM><MEAN_ELEMENT_THEORY>SGP4</MEAN_ELEMENT_THEORY></metadata><data><meanElements><EPOCH>2024-01-20T14:40:14.242080</EPOCH><MEAN_MOTION>14.34219474</MEAN_MOTION><ECCENTRICITY>.0002327</ECCENTRICITY><INCLINATION>86.3937</INCLINATION><RA_OF_ASC_NODE>63.8854</RA_OF_ASC_NODE><ARG_OF_PERICENTER>93.9371</ARG_OF_PERICENTER><MEAN_ANOMALY>266.2091</MEAN_ANOMALY></meanElements><tleParameters><EPHEMERIS_TYPE>0</EPHEMERIS_TYPE><CLASSIFICATION_TYPE>U</CLASSIFICATION_TYPE><NORAD_CAT_ID>43578</NORAD_CAT_ID><ELEMENT_SET_NO>999</ELEMENT_SET_NO><REV_AT_EPOCH>28745</REV_AT_EPOCH><BSTAR>.16403E-3</BSTAR><MEAN_MOTION_DOT>.479E-5</MEAN_MOTION_DOT><MEAN_MOTION_DDOT>0</MEAN_MOTION_DDOT></tleParameters></data></segment></body></omm>
<omm id="CCSDS_OMM_VERS" version="2.0">
<header><CREATION_DATE/><ORIGINATOR/></header><body><segment><metadata><OBJECT_NAME>IRIDIUM 180</OBJECT_NAME><OBJECT_ID>2019-002A</OBJECT_ID><CENTER_NAME>EARTH</CENTER_NAME><REF_FRAME>TEME</REF_FRAME><TIME_SYSTEM>UTC</TIME_SYSTEM><MEAN_ELEMENT_THEORY>SGP4</MEAN_ELEMENT_THEORY></metadata><data><meanElements><EPOCH>2024-01-20T11:18:33.071904</EPOCH><MEAN_MOTION>14.34225964</MEAN_MOTION><ECCENTRICITY>.0002256</ECCENTRICITY><INCLINATION>86.3982</INCLINATION><RA_OF_ASC_NODE>0.8219</RA_OF_ASC_NODE><ARG_OF_PERICENTER>91.9851</ARG_OF_PERICENTER><MEAN_ANOMALY>268.1604</MEAN_ANOMALY></meanElements><tleParameters><EPHEMERIS_TYPE>0</EPHEMERIS_TYPE><CLASSIFICATION_TYPE>U</CLASSIFICATION_TYPE><NORAD_CAT_ID>43922</NORAD_CAT_ID><ELEMENT_SET_NO>999</ELEMENT_SET_NO><REV_AT_EPOCH>26304</REV_AT_EPOCH><BSTAR>.19523E-3</BSTAR><MEAN_MOTION_DOT>.567E-5</MEAN_MOTION_DOT><MEAN_MOTION_DDOT>0</MEAN_MOTION_DDOT></tleParameters></data></segment></body></omm>
<omm id="CCSDS_OMM_VERS" version="2.0">
<header><CREATION_DATE/><ORIGINATOR/></header><body><segment><metadata><OBJECT_NAME>IRIDIUM 176</OBJECT_NAME><OBJECT_ID>2019-002B</OBJECT_ID><CENTER_NAME>EARTH</CENTER_NAME><REF_FRAME>TEME</REF_FRAME><TIME_SYSTEM>UTC</TIME_SYSTEM><MEAN_ELEMENT_THEORY>SGP4</MEAN_ELEMENT_THEORY></metadata><data><meanElements><EPOCH>2024-01-21T10:10:33.474720</EPOCH><MEAN_MOTION>14.72233634</MEAN_MOTION><ECCENTRICITY>.0003303</ECCENTRICITY><INCLINATION>86.6118</INCLINATION><RA_OF_ASC_NODE>0.4527</RA_OF_ASC_NODE><ARG_OF_PERICENTER>77.8429</ARG_OF_PERICENTER><MEAN_ANOMALY>282.3158</MEAN_ANOMALY></meanElements><tleParameters><EPHEMERIS_TYPE>0</EPHEMERIS_TYPE><CLASSIFICATION_TYPE>U</CLASSIFICATION_TYPE><NORAD_CAT_ID>43923</NORAD_CAT_ID><ELEMENT_SET_NO>999</ELEMENT_SET_NO><REV_AT_EPOCH>27010</REV_AT_EPOCH><BSTAR>.33111E-3</BSTAR><MEAN_MOTION_DOT>.2112E-4</MEAN_MOTION_DOT><MEAN_MOTION_DDOT>0</MEAN_MOTION_DDOT></tleParameters></data></segment></body></omm>
<omm id="CCSDS_OMM_VERS" version="2.0">
<header><CREATION_DATE/><ORIGINATOR/></header><body><segment><metadata><OBJECT_NAME>IRIDIUM 168</OBJECT_NAME><OBJECT_ID>2019-002C</OBJECT_ID><CENTER_NAME>EARTH</CENTER_NAME><REF_FRAME>TEME</REF_FRAME><TIME_SYSTEM>UTC</TIME_SYSTEM><MEAN_ELEMENT_THEORY>SGP4</MEAN_ELEMENT_THEORY></metadata><data><meanElements><EPOCH>2024-01-20T22:52:42.170304</EPOCH><MEAN_MOTION>14.34215103</MEAN_MOTION><ECCENTRICITY>.0002152</ECCENTRICITY><INCLINATION>86.3986</INCLINATION><RA_OF_ASC_NODE>0.6728</RA_OF_ASC_NODE><ARG_OF_PERICENTER>85.4959</ARG_OF_PERICENTER><MEAN_ANOMALY>274.6483</MEAN_ANOMALY></meanElements><tleParameters><EPHEMERIS_TYPE>0</EPHEMERIS_TYPE><CLASSIFICATION_TYPE>U</CLASSIFICATION_TYPE><NORAD_CAT_ID>43924</NORAD_CAT_ID><ELEMENT_SET_NO>999</ELEMENT_SET_NO><REV_AT_EPOCH>26309</REV_AT_EPOCH><BSTAR>.16884E-3</BSTAR><MEAN_MOTION_DOT>.493E-5</MEAN_MOTION_DOT><MEAN_MOTION_DDOT>0</MEAN_MOTION_DDOT></tleParameters></data></segment></body></omm>
<omm id="CCSDS_OMM_VERS" version="2.0">
<header><CREATION_DATE/><ORIGINATOR/></header><body><segment><metadata><OBJECT_NAME>IRIDIUM 173</OBJECT_NAME><OBJECT_ID>2019-002D</OBJECT_ID><CENTER_NAME>EARTH</CENTER_NAME><REF_FRAME>TEME</REF_FRAME><TIME_SYSTEM>UTC</TIME_SYSTEM><MEAN_ELEMENT_THEORY>SGP4</MEAN_ELEMENT_THEORY></metadata><data><meanElements><EPOCH>2024-01-21T03:35:50.780256</EPOCH><MEAN_MOTION>14.34217638</MEAN_MOTION><ECCENTRICITY>.0002294</ECCENTRICITY><INCLINATION>86.3982</INCLINATION><RA_OF_ASC_NODE>0.5161</RA_OF_ASC_NODE><ARG_OF_PERICENTER>87.2814</ARG_OF_PERICENTER><MEAN_ANOMALY>272.8645</MEAN_ANOMALY></meanElements><tleParameters><EPHEMERIS_TYPE>0</EPHEMERIS_TYPE><CLASSIFICATION_TYPE>U</CLASSIFICATION_TYPE><NORAD_CAT_ID>43925</NORAD_CAT_ID><ELEMENT_SET_NO>999</ELEMENT_SET_NO><REV_AT_EPOCH>26311</REV_AT_EPOCH><BSTAR>.16064E-3</BSTAR><MEAN_MOTION_DOT>.47E-5</MEAN_MOTION_DOT><MEAN_MOTION_DDOT>0</MEAN_MOTION_DDOT></tleParameters></data></segment></body></omm>
<omm id="CCSDS_OMM_VERS" version="2.0">
<header><CREATION_DATE/><ORIGINATOR/></header><body><segment><metadata><OBJECT_NAME>IRIDIUM 169</OBJECT_NAME><OBJECT_ID>2019-002E</OBJECT_ID><CENTER_NAME>EARTH</CENTER_NAME><REF_FRAME>TEME</REF_FRAME><TIME_SYSTEM>UTC</TIME_SYSTEM><MEAN_ELEMENT_THEORY>SGP4</MEAN_ELEMENT_THEORY></metadata><data><meanElements><EPOCH>2024-01-20T23:18:56.702304</EPOCH><MEAN_MOTION>14.38612459</MEAN_MOTION><ECCENTRICITY>.0003436</ECCENTRICITY><INCLINATION>86.4210</INCLINATION><RA_OF_ASC_NODE>32.1934</RA_OF_ASC_NODE><ARG_OF_PERICENTER>38.7281</ARG_OF_PERICENTER><MEAN_ANOMALY>321.4163</MEAN_ANOMALY></meanElements><tleParameters><EPHEMERIS_TYPE>0</EPHEMERIS_TYPE><CLASSIFICATION_TYPE>U</CLASSIFICATION_TYPE><NORAD_CAT_ID>43926</NORAD_CAT_ID><ELEMENT_SET_NO>999</ELEMENT_SET_NO><REV_AT_EPOCH>26396</REV_AT_EPOCH><BSTAR>.96814E-4</BSTAR><MEAN_MOTION_DOT>.316E-5</MEAN_MOTION_DOT><MEAN_MOTION_DDOT>0</MEAN_MOTION_DDOT></tleParameters></data></segment></body></omm>
<omm id="CCSDS_OMM_VERS" version="2.0">
<header><CREATION_DATE/><ORIGINATOR/></header><body><segment><metadata><OBJECT_NAME>IRIDIUM 172</OBJECT_NAME><OBJECT_ID>2019-002F</OBJECT_ID><CENTER_NAME>EARTH</CENTER_NAME><REF_FRAME>TEME</REF_FRAME><TIME_SYSTEM>UTC</TIME_SYSTEM><MEAN_ELEMENT_THEORY>SGP4</MEAN_ELEMENT_THEORY></metadata><data><meanElements><EPOCH>2024-01-20T22:25:18.664320</EPOCH><MEAN_MOTION>14.34217512</MEAN_MOTION><ECCENTRICITY>.0002191</ECCENTRICITY><INCLINATION>86.3980</INCLINATION><RA_OF_ASC_NODE>0.6114</RA_OF_ASC_NODE><ARG_OF_PERICENTER>88.2847</ARG_OF_PERICENTER><MEAN_ANOMALY>271.8600</MEAN_ANOMALY></meanElements><tleParameters><EPHEMERIS_TYPE>0</EPHEMERIS_TYPE><CLASSIFICATION_TYPE>U</CLASSIFICATION_TYPE><NORAD_CAT_ID>43927</NORAD_CAT_ID><ELEMENT_SET_NO>999</ELEMENT_SET_NO><REV_AT_EPOCH>26308</REV_AT_EPOCH><BSTAR>.19431E-3</BSTAR><MEAN_MOTION_DOT>.564E-5</MEAN_MOTION_DOT><MEAN_MOTION_DDOT>0</MEAN_MOTION_DDOT></tleParameters></data></segment></body></omm>
<omm id="CCSDS_OMM_VERS" version="2.0">
<header><CREATION_DATE/><ORIGINATOR/></header><body><segment><metadata><OBJECT_NAME>IRIDIUM 175</OBJECT_NAME><OBJECT_ID>2019-002G</OBJECT_ID><CENTER_NAME>EARTH</CENTER_NAME><REF_FRAME>TEME</REF_FRAME><TIME_SYSTEM>UTC</TIME_SYSTEM><MEAN_ELEMENT_THEORY>SGP4</MEAN_ELEMENT_THEORY></metadata><data><meanElements><EPOCH>2024-01-20T22:36:53.728992</EPOCH><MEAN_MOTION>14.72214609</MEAN_MOTION><ECCENTRICITY>.0002453</ECCENTRICITY><INCLINATION>86.1529</INCLINATION><RA_OF_ASC_NODE>342.1868</RA_OF_ASC_NODE><ARG_OF_PERICENTER>86.9590</ARG_OF_PERICENTER><MEAN_ANOMALY>273.1907</MEAN_ANOMALY></meanElements><tleParameters><EPHEMERIS_TYPE>0</EPHEMERIS_TYPE><CLASSIFICATION_TYPE>U</CLASSIFICATION_TYPE><NORAD_CAT_ID>43928</NORAD_CAT_ID><ELEMENT_SET_NO>999</ELEMENT_SET_NO><REV_AT_EPOCH>27002</REV_AT_EPOCH><BSTAR>.32922E-3</BSTAR><MEAN_MOTION_DOT>.2099E-4</MEAN_MOTION_DOT><MEAN_MOTION_DDOT>0</MEAN_MOTION_DDOT></tleParameters></data></segment></body></omm>

</ndm>
