IRIDIUM 159             
1 43578U 18061K   24020.61127595  .00000479  00000+0  16403-3 0  9993
2 43578  86.3937  63.8854 0002327  93.9371 266.2091 14.34219474287456
IRIDIUM 180             
1 43922U 19002A   24020.47121611  .00000567  00000+0  19523-3 0  9993
2 43922  86.3982   0.8219 0002256  91.9851 268.1604 14.34225964263048
IRIDIUM 176             
1 43923U 19002B   24021.42399855  .00002112  00000+0  33111-3 0  9994
2 43923  86.6118   0.4527 0003303  77.8429 282.3158 14.72233634270101
IRIDIUM 168             
1 43924U 19002C   24020.95326586  .00000493  00000+0  16884-3 0  9991
2 43924  86.3986   0.6728 0002152  85.4959 274.6483 14.34215103263095
IRIDIUM 173             
1 43925U 19002D   24021.14989329  .00000470  00000+0  16064-3 0  9999
2 43925  86.3982   0.5161 0002294  87.2814 272.8645 14.34217638263117
IRIDIUM 169             
1 43926U 19002E   24020.97148961  .00000316  00000+0  96814-4 0  9990
2 43926  86.4210  32.1934 0003436  38.7281 321.4163 14.38612459263963
IRIDIUM 172             
1 43927U 19002F   24020.93424380  .00000564  00000+0  19431-3 0  9993
2 43927  86.3980   0.6114 0002191  88.2847 271.8600 14.34217512263086
IRIDIUM 175             
1 43928U 19002G   24020.94228853  .00002099  00000+0  32922-3 0  9997
2 43928  86.1529 342.1868 0002453  86.9590 273.1907 14.72214609270028
